*******************************************************************************
Ephemeris / PORT_LOGIN Fri Dec 28 19:59:45 2012 Pasadena, USA    / Horizons    
*******************************************************************************
Target body name: Mars (499)                      {source: MAR097}
Center body name: Earth (399)                     {source: DE405}
Center-site name: GEOCENTRIC
*******************************************************************************
Start time      : A.D. 2012-Dec-28 00:01:00.0000 UT      
Stop  time      : A.D. 2012-Dec-29 00:01:00.0000 UT      
Step-size       : 1440 minutes
*******************************************************************************
Target pole/equ : IAU_MARS                        {East-longitude -}
Target radii    : 3396.2 x 3396.2 x 3376.2 km     {Equator, meridian, pole}    
Center geodetic : 0.00000000,0.00000000,0.0000000 {E-lon(deg),Lat(deg),Alt(km)}
Center cylindric: 0.00000000,0.00000000,0.0000000 {E-lon(deg),Dxy(km),Dz(km)}
Center pole/equ : High-precision EOP model        {East-longitude +}
Center radii    : 6378.1 x 6378.1 x 6356.8 km     {Equator, meridian, pole}    
Target primary  : Sun                             {source: DE405+DE406}
Interfering body: MOON (Req= 1737.400) km         {source: DE405}
Deflecting body : Sun, EARTH                      {source: DE405}
Deflecting GMs  : 1.3271E+11, 3.9860E+05 km^3/s^2                              
Atmos refraction: NO (AIRLESS)
RA format       : HMS
Time format     : CAL 
EOP file        : eop.121228.p130321                                           
EOP coverage    : DATA-BASED 1962-JAN-20 TO 2012-DEC-28. PREDICTS-> 2013-MAR-20
Units conversion: 1 AU= 149597870.691 km, c= 299792.458 km/s, 1 day= 86400.0 s 
Table cut-offs 1: Elevation (-90.0deg=NO ),Airmass (>38.000=NO), Daylight (NO )
Table cut-offs 2: Solar Elongation (  0.0,180.0=NO )                           
********************************************************************************************************************************************************************************************************************************************************************************************************************************************************************************************************************************************************************************************************
Date__(UT)__HR:MN     R.A._(ICRF/J2000.0)_DEC R.A.__(a-apparent)__DEC dRA*cosD d(DEC)/dt X_(sat-primary)_Y SatPANG APmag  S-brt   Illu% Def_illu  ang-sep/v Ang-diam Ob-lon Ob-lat Sl-lon Sl-lat SN.ang   SN.dist   NP.ang   NP.dist hEcl-Lon hEcl-Lat          r        rdot            delta      deldot   1-way_LT   VmagSn   VmagOb    S-O-T /r    S-T-O  T-O-M/Illu%    O-P-T   PsAng   PsAMV     PlAng Cnst   CT-UT    ObsEcLon    ObsEcLat N.Pole-RA  N.Pole-DC     GlxLon     GlxLat
********************************************************************************************************************************************************************************************************************************************************************************************************************************************************************************************************************************************************************************************************
$$SOE
2012-Dec-28 00:01     20 15 28.33 -20 59 03.0 20 16 13.39 -20 56 33.7 114.5645  26.39507 88659.56 8373.593  89.873   1.20   4.03 97.719   0.0964 89680.00/* 4.227254 263.01 -15.34 245.51 -20.28 259.62      0.63   8.5163     -2.03 318.7304  -1.8485 1.386867237136  -0.6735610 2.21545698067110   4.1643710  18.425394 26.40227 52.63836  24.9111 /T  17.3773  150.1/ 99.8 137.7116    n.a.    n.a.      n.a.  Cap    67.183820 301.5412284  -1.1577331 317.66765   52.87859  22.140535 -27.460132
2012-Dec-29 00:01     20 18 44.52 -20 48 25.5 20 19 29.49 -20 45 53.2 114.4932  26.97697 87736.60 8816.216  89.457   1.19   4.03 97.759   0.0946 88836.33/* 4.222678 253.14 -15.63 235.75 -20.45 259.37      0.62   8.0256     -2.02 319.3607  -1.8487 1.386485087387  -0.6497935 2.21785797146913   4.1498974  18.445362 26.40894 52.72181  24.6768 /T  17.2236  160.9/ 99.6 138.0996    n.a.    n.a.      n.a.  Cap    67.183848 302.3254149  -1.1562684 317.66765   52.87859  22.630560 -28.113325
